{"type": "FeatureCollection", "features": [{"type": "Feature", "properties": {"GRP1_CD": "10", "GRP1_NM": "중부청", "GRP2_CD": "1040", "GRP2_NM": "보령서", "POL_NM": "홍성파출소", "LAT": "36.535035909999998", "LOT": "126.467178300000000"}, "geometry": {"type": "Point", "coordinates": [126.4671783, 36.53503591]}}, {"type": "Feature", "properties": {"GRP1_CD": "10", "GRP1_NM": "중부청", "GRP2_CD": "1040", "GRP2_NM": "보령서", "POL_NM": "오천파출소", "LAT": "36.438589180000001", "LOT": "126.518148600000004"}, "geometry": {"type": "Point", "coordinates": [126.5181486, 36.43858918]}}, {"type": "Feature", "properties": {"GRP1_CD": "10", "GRP1_NM": "중부청", "GRP2_CD": "1040", "GRP2_NM": "보령서", "POL_NM": "대천파출소", "LAT": "36.327251160000003", "LOT": "126.508842400000006"}, "geometry": {"type": "Point", "coordinates": [126.5088424, 36.32725116]}}, {"type": "Feature", "properties": {"GRP1_CD": "10", "GRP1_NM": "중부청", "GRP2_CD": "1040", "GRP2_NM": "보령서", "POL_NM": "홍원파출소", "LAT": "36.158999219999998", "LOT": "126.499452199999993"}, "geometry": {"type": "Point", "coordinates": [126.4994522, 36.15899922]}}, {"type": "Feature", "properties": {"GRP1_CD": "10", "GRP1_NM": "중부청", "GRP2_CD": "1040", "GRP2_NM": "보령서", "POL_NM": "장항파출소", "LAT": "36.007585489999997", "LOT": "126.695258699999997"}, "geometry": {"type": "Point", "coordinates": [126.6952587, 36.00758549]}}, {"type": "Feature", "properties": {"GRP1_CD": "10", "GRP1_NM": "중부청", "GRP2_CD": "1010", "GRP2_NM": "인천서", "POL_NM": "강화파출소", "LAT": "37.700665149999999", "LOT": "126.380910099999994"}, "geometry": {"type": "Point", "coordinates": [126.3809101, 37.70066515]}}, {"type": "Feature", "properties": {"GRP1_CD": "10", "GRP1_NM": "중부청", "GRP2_CD": "1010", "GRP2_NM": "인천서", "POL_NM": "대명파출소", "LAT": "37.638556129999998", "LOT": "126.542327200000003"}, "geometry": {"type": "Point", "coordinates": [126.5423272, 37.63855613]}}, {"type": "Feature", "properties": {"GRP1_CD": "10", "GRP1_NM": "중부청", "GRP2_CD": "1010", "GRP2_NM": "인천서", "POL_NM": "하늘바다파출소", "LAT": "37.422059200000000", "LOT": "126.425413300000002"}, "geometry": {"type": "Point", "coordinates": [126.4254133, 37.4220592]}}, {"type": "Feature", "properties": {"GRP1_CD": "10", "GRP1_NM": "중부청", "GRP2_CD": "1010", "GRP2_NM": "인천서", "POL_NM": "인항파출소", "LAT": "37.457036430000002", "LOT": "126.603306000000003"}, "geometry": {"type": "Point", "coordinates": [126.603306, 37.45703643]}}, {"type": "Feature", "properties": {"GRP1_CD": "10", "GRP1_NM": "중부청", "GRP2_CD": "1010", "GRP2_NM": "인천서", "POL_NM": "신항만파출소", "LAT": "37.345285230000002", "LOT": "126.687944500000000"}, "geometry": {"type": "Point", "coordinates": [126.6879445, 37.34528523]}}, {"type": "Feature", "properties": {"GRP1_CD": "10", "GRP1_NM": "중부청", "GRP2_CD": "1010", "GRP2_NM": "인천서", "POL_NM": "영흥파출소", "LAT": "37.254910320000000", "LOT": "126.498287899999994"}, "geometry": {"type": "Point", "coordinates": [126.4982879, 37.25491032]}}, {"type": "Feature", "properties": {"GRP1_CD": "10", "GRP1_NM": "중부청", "GRP2_CD": "1010", "GRP2_NM": "인천서", "POL_NM": "연평파출소", "LAT": "37.660476289999998", "LOT": "125.702053899999996"}, "geometry": {"type": "Point", "coordinates": [125.7020539, 37.66047629]}}, {"type": "Feature", "properties": {"GRP1_CD": "10", "GRP1_NM": "중부청", "GRP2_CD": "1010", "GRP2_NM": "인천서", "POL_NM": "백령파출소", "LAT": "37.956268770000001", "LOT": "124.735102699999999"}, "geometry": {"type": "Point", "coordinates": [124.7351027, 37.95626877]}}, {"type": "Feature", "properties": {"GRP1_CD": "10", "GRP1_NM": "중부청", "GRP2_CD": "1010", "GRP2_NM": "인천서", "POL_NM": "대청파출소", "LAT": "37.826009550000002", "LOT": "124.715180000000004"}, "geometry": {"type": "Point", "coordinates": [124.71518, 37.82600955]}}, {"type": "Feature", "properties": {"GRP1_CD": "10", "GRP1_NM": "중부청", "GRP2_CD": "1030", "GRP2_NM": "태안서", "POL_NM": "학암포파출소", "LAT": "36.901932060000000", "LOT": "126.206174899999993"}, "geometry": {"type": "Point", "coordinates": [126.2061749, 36.90193206]}}, {"type": "Feature", "properties": {"GRP1_CD": "10", "GRP1_NM": "중부청", "GRP2_CD": "1030", "GRP2_NM": "태안서", "POL_NM": "모항파출소", "LAT": "36.776223399999999", "LOT": "126.131718000000006"}, "geometry": {"type": "Point", "coordinates": [126.131718, 36.7762234]}}, {"type": "Feature", "properties": {"GRP1_CD": "10", "GRP1_NM": "중부청", "GRP2_CD": "1030", "GRP2_NM": "태안서", "POL_NM": "신진파출소", "LAT": "36.675888929999999", "LOT": "126.136875300000000"}, "geometry": {"type": "Point", "coordinates": [126.1368753, 36.67588893]}}, {"type": "Feature", "properties": {"GRP1_CD": "10", "GRP1_NM": "중부청", "GRP2_CD": "1030", "GRP2_NM": "태안서", "POL_NM": "마검포파출소", "LAT": "36.619818930000001", "LOT": "126.286753800000000"}, "geometry": {"type": "Point", "coordinates": [126.2867538, 36.61981893]}}, {"type": "Feature", "properties": {"GRP1_CD": "10", "GRP1_NM": "중부청", "GRP2_CD": "1030", "GRP2_NM": "태안서", "POL_NM": "영목파출소", "LAT": "36.400777810000001", "LOT": "126.427289700000003"}, "geometry": {"type": "Point", "coordinates": [126.4272897, 36.40077781]}}, {"type": "Feature", "properties": {"GRP1_CD": "10", "GRP1_NM": "중부청", "GRP2_CD": "1020", "GRP2_NM": "평택서", "POL_NM": "안산파출소", "LAT": "37.293106790000003", "LOT": "126.577230999999998"}, "geometry": {"type": "Point", "coordinates": [126.577231, 37.29310679]}}, {"type": "Feature", "properties": {"GRP1_CD": "10", "GRP1_NM": "중부청", "GRP2_CD": "1020", "GRP2_NM": "평택서", "POL_NM": "대부파출소", "LAT": "37.192117940000003", "LOT": "126.646614600000007"}, "geometry": {"type": "Point", "coordinates": [126.6466146, 37.19211794]}}, {"type": "Feature", "properties": {"GRP1_CD": "10", "GRP1_NM": "중부청", "GRP2_CD": "1020", "GRP2_NM": "평택서", "POL_NM": "평택파출소", "LAT": "36.961999800000001", "LOT": "126.844813599999995"}, "geometry": {"type": "Point", "coordinates": [126.8448136, 36.9619998]}}, {"type": "Feature", "properties": {"GRP1_CD": "10", "GRP1_NM": "중부청", "GRP2_CD": "1020", "GRP2_NM": "평택서", "POL_NM": "당진파출소", "LAT": "37.028857119999998", "LOT": "126.561997099999999"}, "geometry": {"type": "Point", "coordinates": [126.5619971, 37.02885712]}}, {"type": "Feature", "properties": {"GRP1_CD": "10", "GRP1_NM": "중부청", "GRP2_CD": "1020", "GRP2_NM": "평택서", "POL_NM": "대산파출소", "LAT": "37.005190089999999", "LOT": "126.451258899999999"}, "geometry": {"type": "Point", "coordinates": [126.4512589, 37.00519009]}}, {"type": "Feature", "properties": {"GRP1_CD": "50", "GRP1_NM": "제주청", "GRP2_CD": "5020", "GRP2_NM": "서귀포서", "POL_NM": "성산파출소", "LAT": "33.471780979999998", "LOT": "126.930083999999994"}, "geometry": {"type": "Point", "coordinates": [126.930084, 33.47178098]}}, {"type": "Feature", "properties": {"GRP1_CD": "50", "GRP1_NM": "제주청", "GRP2_CD": "5020", "GRP2_NM": "서귀포서", "POL_NM": "서귀포파출소", "LAT": "33.239977199999998", "LOT": "126.562169900000001"}, "geometry": {"type": "Point", "coordinates": [126.5621699, 33.2399772]}}, {"type": "Feature", "properties": {"GRP1_CD": "50", "GRP1_NM": "제주청", "GRP2_CD": "5020", "GRP2_NM": "서귀포서", "POL_NM": "화순파출소", "LAT": "33.237920930000001", "LOT": "126.336972099999997"}, "geometry": {"type": "Point", "coordinates": [126.3369721, 33.23792093]}}, {"type": "Feature", "properties": {"GRP1_CD": "50", "GRP1_NM": "제주청", "GRP2_CD": "5010", "GRP2_NM": "제주서", "POL_NM": "제주파출소", "LAT": "33.517413929999996", "LOT": "126.528163199999995"}, "geometry": {"type": "Point", "coordinates": [126.5281632, 33.51741393]}}, {"type": "Feature", "properties": {"GRP1_CD": "50", "GRP1_NM": "제주청", "GRP2_CD": "5010", "GRP2_NM": "제주서", "POL_NM": "한림파출소", "LAT": "33.419305629999997", "LOT": "126.262515899999997"}, "geometry": {"type": "Point", "coordinates": [126.2625159, 33.41930563]}}, {"type": "Feature", "properties": {"GRP1_CD": "50", "GRP1_NM": "제주청", "GRP2_CD": "5010", "GRP2_NM": "제주서", "POL_NM": "추자파출소", "LAT": "33.941231790000003", "LOT": "126.324394799999993"}, "geometry": {"type": "Point", "coordinates": [126.3243948, 33.94123179]}}, {"type": "Feature", "properties": {"GRP1_CD": "20", "GRP1_NM": "서해청", "GRP2_CD": "2010", "GRP2_NM": "군산서", "POL_NM": "해망파출소", "LAT": "35.992682809999998", "LOT": "126.710641899999999"}, "geometry": {"type": "Point", "coordinates": [126.7106419, 35.99268281]}}, {"type": "Feature", "properties": {"GRP1_CD": "20", "GRP1_NM": "서해청", "GRP2_CD": "2010", "GRP2_NM": "군산서", "POL_NM": "비응파출소", "LAT": "35.938715190000003", "LOT": "126.530797399999997"}, "geometry": {"type": "Point", "coordinates": [126.5307974, 35.93871519]}}, {"type": "Feature", "properties": {"GRP1_CD": "20", "GRP1_NM": "서해청", "GRP2_CD": "2010", "GRP2_NM": "군산서", "POL_NM": "새만금파출소", "LAT": "35.822254800000003", "LOT": "126.475600700000001"}, "geometry": {"type": "Point", "coordinates": [126.4756007, 35.8222548]}}, {"type": "Feature", "properties": {"GRP1_CD": "20", "GRP1_NM": "서해청", "GRP2_CD": "2030", "GRP2_NM": "목포서", "POL_NM": "영광파출소", "LAT": "35.391313779999997", "LOT": "126.407316300000005"}, "geometry": {"type": "Point", "coordinates": [126.4073163, 35.39131378]}}, {"type": "Feature", "properties": {"GRP1_CD": "20", "GRP1_NM": "서해청", "GRP2_CD": "2030", "GRP2_NM": "목포서", "POL_NM": "지도파출소", "LAT": "35.043186839999997", "LOT": "126.203762800000007"}, "geometry": {"type": "Point", "coordinates": [126.2037628, 35.04318684]}}, {"type": "Feature", "properties": {"GRP1_CD": "20", "GRP1_NM": "서해청", "GRP2_CD": "2030", "GRP2_NM": "목포서", "POL_NM": "북항파출소", "LAT": "34.804201419999998", "LOT": "126.365750300000002"}, "geometry": {"type": "Point", "coordinates": [126.3657503, 34.80420142]}}, {"type": "Feature", "properties": {"GRP1_CD": "20", "GRP1_NM": "서해청", "GRP2_CD": "2030", "GRP2_NM": "목포서", "POL_NM": "암태파출소", "LAT": "34.803572070000001", "LOT": "126.119762899999998"}, "geometry": {"type": "Point", "coordinates": [126.1197629, 34.80357207]}}, {"type": "Feature", "properties": {"GRP1_CD": "20", "GRP1_NM": "서해청", "GRP2_CD": "2030", "GRP2_NM": "목포서", "POL_NM": "남항파출소", "LAT": "34.781016209999997", "LOT": "126.381130600000006"}, "geometry": {"type": "Point", "coordinates": [126.3811306, 34.78101621]}}, {"type": "Feature", "properties": {"GRP1_CD": "20", "GRP1_NM": "서해청", "GRP2_CD": "2030", "GRP2_NM": "목포서", "POL_NM": "진도파출소", "LAT": "34.366834070000003", "LOT": "126.136025900000007"}, "geometry": {"type": "Point", "coordinates": [126.1360259, 34.36683407]}}, {"type": "Feature", "properties": {"GRP1_CD": "20", "GRP1_NM": "서해청", "GRP2_CD": "2030", "GRP2_NM": "목포서", "POL_NM": "흑산파출소", "LAT": "34.684152009999998", "LOT": "125.442240100000006"}, "geometry": {"type": "Point", "coordinates": [125.4422401, 34.68415201]}}, {"type": "Feature", "properties": {"GRP1_CD": "20", "GRP1_NM": "서해청", "GRP2_CD": "2020", "GRP2_NM": "부안서", "POL_NM": "변산파출소", "LAT": "35.624232990000003", "LOT": "126.470104100000000"}, "geometry": {"type": "Point", "coordinates": [126.4701041, 35.62423299]}}, {"type": "Feature", "properties": {"GRP1_CD": "20", "GRP1_NM": "서해청", "GRP2_CD": "2020", "GRP2_NM": "부안서", "POL_NM": "위도파출소", "LAT": "35.617454490000000", "LOT": "126.303644199999994"}, "geometry": {"type": "Point", "coordinates": [126.3036442, 35.61745449]}}, {"type": "Feature", "properties": {"GRP1_CD": "20", "GRP1_NM": "서해청", "GRP2_CD": "2020", "GRP2_NM": "부안서", "POL_NM": "고창파출소", "LAT": "35.449053630000002", "LOT": "126.426821500000003"}, "geometry": {"type": "Point", "coordinates": [126.4268215, 35.44905363]}}, {"type": "Feature", "properties": {"GRP1_CD": "20", "GRP1_NM": "서해청", "GRP2_CD": "2050", "GRP2_NM": "여수서", "POL_NM": "녹동파출소", "LAT": "34.523638849999998", "LOT": "127.145686499999996"}, "geometry": {"type": "Point", "coordinates": [127.1456865, 34.52363885]}}, {"type": "Feature", "properties": {"GRP1_CD": "20", "GRP1_NM": "서해청", "GRP2_CD": "2050", "GRP2_NM": "여수서", "POL_NM": "여수바다파출소", "LAT": "34.726312980000003", "LOT": "127.721341499999994"}, "geometry": {"type": "Point", "coordinates": [127.7213415, 34.72631298]}}, {"type": "Feature", "properties": {"GRP1_CD": "20", "GRP1_NM": "서해청", "GRP2_CD": "2050", "GRP2_NM": "여수서", "POL_NM": "돌산파출소", "LAT": "34.613920110000002", "LOT": "127.720865099999997"}, "geometry": {"type": "Point", "coordinates": [127.7208651, 34.61392011]}}, {"type": "Feature", "properties": {"GRP1_CD": "20", "GRP1_NM": "서해청", "GRP2_CD": "2050", "GRP2_NM": "여수서", "POL_NM": "나로도파출소", "LAT": "34.466151979999999", "LOT": "127.453572500000007"}, "geometry": {"type": "Point", "coordinates": [127.4535725, 34.46615198]}}, {"type": "Feature", "properties": {"GRP1_CD": "20", "GRP1_NM": "서해청", "GRP2_CD": "2050", "GRP2_NM": "여수서", "POL_NM": "광양파출소", "LAT": "34.923814139999998", "LOT": "127.695921100000007"}, "geometry": {"type": "Point", "coordinates": [127.6959211, 34.92381414]}}, {"type": "Feature", "properties": {"GRP1_CD": "20", "GRP1_NM": "서해청", "GRP2_CD": "2050", "GRP2_NM": "여수서", "POL_NM": "거문파출소", "LAT": "34.027923360000003", "LOT": "127.308957699999993"}, "geometry": {"type": "Point", "coordinates": [127.3089577, 34.02792336]}}, {"type": "Feature", "properties": {"GRP1_CD": "20", "GRP1_NM": "서해청", "GRP2_CD": "2040", "GRP2_NM": "완도서", "POL_NM": "땅끝파출소", "LAT": "34.298981300000001", "LOT": "126.527888599999997"}, "geometry": {"type": "Point", "coordinates": [126.5278886, 34.2989813]}}, {"type": "Feature", "properties": {"GRP1_CD": "20", "GRP1_NM": "서해청", "GRP2_CD": "2040", "GRP2_NM": "완도서", "POL_NM": "노화파출소", "LAT": "34.177188020000003", "LOT": "126.566384700000000"}, "geometry": {"type": "Point", "coordinates": [126.5663847, 34.17718802]}}, {"type": "Feature", "properties": {"GRP1_CD": "20", "GRP1_NM": "서해청", "GRP2_CD": "2040", "GRP2_NM": "완도서", "POL_NM": "완도파출소", "LAT": "34.316161710000003", "LOT": "126.761841200000006"}, "geometry": {"type": "Point", "coordinates": [126.7618412, 34.31616171]}}, {"type": "Feature", "properties": {"GRP1_CD": "20", "GRP1_NM": "서해청", "GRP2_CD": "2040", "GRP2_NM": "완도서", "POL_NM": "마량파출소", "LAT": "34.449095139999997", "LOT": "126.822195800000003"}, "geometry": {"type": "Point", "coordinates": [126.8221958, 34.44909514]}}, {"type": "Feature", "properties": {"GRP1_CD": "20", "GRP1_NM": "서해청", "GRP2_CD": "2040", "GRP2_NM": "완도서", "POL_NM": "회진파출소", "LAT": "34.480355619999997", "LOT": "126.938130999999998"}, "geometry": {"type": "Point", "coordinates": [126.938131, 34.48035562]}}, {"type": "Feature", "properties": {"GRP1_CD": "40", "GRP1_NM": "동해청", "GRP2_CD": "4030", "GRP2_NM": "동해서", "POL_NM": "강릉파출소", "LAT": "37.769691729999998", "LOT": "128.954282799999987"}, "geometry": {"type": "Point", "coordinates": [128.9542828, 37.76969173]}}, {"type": "Feature", "properties": {"GRP1_CD": "40", "GRP1_NM": "동해청", "GRP2_CD": "4030", "GRP2_NM": "동해서", "POL_NM": "묵호파출소", "LAT": "37.547839340000003", "LOT": "129.117380800000007"}, "geometry": {"type": "Point", "coordinates": [129.1173808, 37.54783934]}}, {"type": "Feature", "properties": {"GRP1_CD": "40", "GRP1_NM": "동해청", "GRP2_CD": "4030", "GRP2_NM": "동해서", "POL_NM": "삼척파출소", "LAT": "37.437940189999999", "LOT": "129.192752600000006"}, "geometry": {"type": "Point", "coordinates": [129.1927526, 37.43794019]}}, {"type": "Feature", "properties": {"GRP1_CD": "40", "GRP1_NM": "동해청", "GRP2_CD": "4030", "GRP2_NM": "동해서", "POL_NM": "임원파출소", "LAT": "37.229865719999999", "LOT": "129.343316100000010"}, "geometry": {"type": "Point", "coordinates": [129.3433161, 37.22986572]}}, {"type": "Feature", "properties": {"GRP1_CD": "40", "GRP1_NM": "동해청", "GRP2_CD": "4030", "GRP2_NM": "동해서", "POL_NM": "울릉파출소", "LAT": "37.494826130000000", "LOT": "130.909698800000001"}, "geometry": {"type": "Point", "coordinates": [130.9096988, 37.49482613]}}, {"type": "Feature", "properties": {"GRP1_CD": "40", "GRP1_NM": "동해청", "GRP2_CD": "4040", "GRP2_NM": "속초서", "POL_NM": "거진파출소", "LAT": "38.448570459999999", "LOT": "128.459080800000010"}, "geometry": {"type": "Point", "coordinates": [128.4590808, 38.44857046]}}, {"type": "Feature", "properties": {"GRP1_CD": "40", "GRP1_NM": "동해청", "GRP2_CD": "4040", "GRP2_NM": "속초서", "POL_NM": "속초파출소", "LAT": "38.198695829999998", "LOT": "128.594131699999991"}, "geometry": {"type": "Point", "coordinates": [128.5941317, 38.19869583]}}, {"type": "Feature", "properties": {"GRP1_CD": "40", "GRP1_NM": "동해청", "GRP2_CD": "4040", "GRP2_NM": "속초서", "POL_NM": "낙산파출소", "LAT": "38.122817370000000", "LOT": "128.631711099999990"}, "geometry": {"type": "Point", "coordinates": [128.6317111, 38.12281737]}}, {"type": "Feature", "properties": {"GRP1_CD": "40", "GRP1_NM": "동해청", "GRP2_CD": "4040", "GRP2_NM": "속초서", "POL_NM": "주문진파출소", "LAT": "37.894843520000002", "LOT": "128.831899399999998"}, "geometry": {"type": "Point", "coordinates": [128.8318994, 37.89484352]}}, {"type": "Feature", "properties": {"GRP1_CD": "40", "GRP1_NM": "동해청", "GRP2_CD": "4020", "GRP2_NM": "울진서", "POL_NM": "죽변파출소", "LAT": "37.054501610000003", "LOT": "129.424051700000007"}, "geometry": {"type": "Point", "coordinates": [129.4240517, 37.05450161]}}, {"type": "Feature", "properties": {"GRP1_CD": "40", "GRP1_NM": "동해청", "GRP2_CD": "4020", "GRP2_NM": "울진서", "POL_NM": "후포파출소", "LAT": "36.680679189999999", "LOT": "129.453673799999990"}, "geometry": {"type": "Point", "coordinates": [129.4536738, 36.68067919]}}, {"type": "Feature", "properties": {"GRP1_CD": "40", "GRP1_NM": "동해청", "GRP2_CD": "4020", "GRP2_NM": "울진서", "POL_NM": "축산파출소", "LAT": "36.509955200000000", "LOT": "129.447948499999995"}, "geometry": {"type": "Point", "coordinates": [129.4479485, 36.5099552]}}, {"type": "Feature", "properties": {"GRP1_CD": "40", "GRP1_NM": "동해청", "GRP2_CD": "4020", "GRP2_NM": "울진서", "POL_NM": "강구파출소", "LAT": "36.359191860000003", "LOT": "129.390185800000012"}, "geometry": {"type": "Point", "coordinates": [129.3901858, 36.35919186]}}, {"type": "Feature", "properties": {"GRP1_CD": "40", "GRP1_NM": "동해청", "GRP2_CD": "4010", "GRP2_NM": "포항서", "POL_NM": "영일만파출소", "LAT": "36.110830030000002", "LOT": "129.431427500000012"}, "geometry": {"type": "Point", "coordinates": [129.4314275, 36.11083003]}}, {"type": "Feature", "properties": {"GRP1_CD": "40", "GRP1_NM": "동해청", "GRP2_CD": "4010", "GRP2_NM": "포항서", "POL_NM": "포항파출소", "LAT": "36.043918750000003", "LOT": "129.370977699999997"}, "geometry": {"type": "Point", "coordinates": [129.3709777, 36.04391875]}}, {"type": "Feature", "properties": {"GRP1_CD": "40", "GRP1_NM": "동해청", "GRP2_CD": "4010", "GRP2_NM": "포항서", "POL_NM": "호미곶파출소", "LAT": "36.078497360000000", "LOT": "129.563751700000012"}, "geometry": {"type": "Point", "coordinates": [129.5637517, 36.07849736]}}, {"type": "Feature", "properties": {"GRP1_CD": "40", "GRP1_NM": "동해청", "GRP2_CD": "4010", "GRP2_NM": "포항서", "POL_NM": "구룡포파출소", "LAT": "35.989104380000001", "LOT": "129.554210200000000"}, "geometry": {"type": "Point", "coordinates": [129.5542102, 35.98910438]}}, {"type": "Feature", "properties": {"GRP1_CD": "40", "GRP1_NM": "동해청", "GRP2_CD": "4010", "GRP2_NM": "포항서", "POL_NM": "감포파출소", "LAT": "35.809184060000000", "LOT": "129.506027200000005"}, "geometry": {"type": "Point", "coordinates": [129.5060272, 35.80918406]}}, {"type": "Feature", "properties": {"GRP1_CD": "30", "GRP1_NM": "남해청", "GRP2_CD": "3030", "GRP2_NM": "부산서", "POL_NM": "송정파출소", "LAT": "35.184306780000000", "LOT": "129.200906099999997"}, "geometry": {"type": "Point", "coordinates": [129.2009061, 35.18430678]}}, {"type": "Feature", "properties": {"GRP1_CD": "30", "GRP1_NM": "남해청", "GRP2_CD": "3030", "GRP2_NM": "부산서", "POL_NM": "광안리파출소", "LAT": "35.154424689999999", "LOT": "129.130894200000000"}, "geometry": {"type": "Point", "coordinates": [129.1308942, 35.15442469]}}, {"type": "Feature", "properties": {"GRP1_CD": "30", "GRP1_NM": "남해청", "GRP2_CD": "3030", "GRP2_NM": "부산서", "POL_NM": "남항파출소", "LAT": "35.092204219999999", "LOT": "129.025320399999998"}, "geometry": {"type": "Point", "coordinates": [129.0253204, 35.09220422]}}, {"type": "Feature", "properties": {"GRP1_CD": "30", "GRP1_NM": "남해청", "GRP2_CD": "3030", "GRP2_NM": "부산서", "POL_NM": "영도파출소", "LAT": "35.069908550000001", "LOT": "129.081725199999994"}, "geometry": {"type": "Point", "coordinates": [129.0817252, 35.06990855]}}, {"type": "Feature", "properties": {"GRP1_CD": "30", "GRP1_NM": "남해청", "GRP2_CD": "3030", "GRP2_NM": "부산서", "POL_NM": "감천파출소", "LAT": "35.084258519999999", "LOT": "128.999966000000001"}, "geometry": {"type": "Point", "coordinates": [128.999966, 35.08425852]}}, {"type": "Feature", "properties": {"GRP1_CD": "30", "GRP1_NM": "남해청", "GRP2_CD": "3030", "GRP2_NM": "부산서", "POL_NM": "다대파출소", "LAT": "35.054553169999998", "LOT": "128.971639000000010"}, "geometry": {"type": "Point", "coordinates": [128.971639, 35.05455317]}}, {"type": "Feature", "properties": {"GRP1_CD": "30", "GRP1_NM": "남해청", "GRP2_CD": "3030", "GRP2_NM": "부산서", "POL_NM": "명지파출소", "LAT": "35.107558640000001", "LOT": "128.918212199999999"}, "geometry": {"type": "Point", "coordinates": [128.9182122, 35.10755864]}}, {"type": "Feature", "properties": {"GRP1_CD": "30", "GRP1_NM": "남해청", "GRP2_CD": "3040", "GRP2_NM": "울산서", "POL_NM": "강동파출소", "LAT": "35.614348000000000", "LOT": "129.451105000000013"}, "geometry": {"type": "Point", "coordinates": [129.451105, 35.614348]}}, {"type": "Feature", "properties": {"GRP1_CD": "30", "GRP1_NM": "남해청", "GRP2_CD": "3040", "GRP2_NM": "울산서", "POL_NM": "방어진파출소", "LAT": "35.483224489999998", "LOT": "129.431044600000007"}, "geometry": {"type": "Point", "coordinates": [129.4310446, 35.48322449]}}, {"type": "Feature", "properties": {"GRP1_CD": "30", "GRP1_NM": "남해청", "GRP2_CD": "3040", "GRP2_NM": "울산서", "POL_NM": "진하파출소", "LAT": "35.389288399999998", "LOT": "129.344167900000002"}, "geometry": {"type": "Point", "coordinates": [129.3441679, 35.3892884]}}, {"type": "Feature", "properties": {"GRP1_CD": "30", "GRP1_NM": "남해청", "GRP2_CD": "3040", "GRP2_NM": "울산서", "POL_NM": "기장파출소", "LAT": "35.222018900000002", "LOT": "129.230614400000007"}, "geometry": {"type": "Point", "coordinates": [129.2306144, 35.2220189]}}, {"type": "Feature", "properties": {"GRP1_CD": "30", "GRP1_NM": "남해청", "GRP2_CD": "3040", "GRP2_NM": "울산서", "POL_NM": "울산항파출소", "LAT": "35.503785180000001", "LOT": "129.386934900000000"}, "geometry": {"type": "Point", "coordinates": [129.3869349, 35.50378518]}}, {"type": "Feature", "properties": {"GRP1_CD": "30", "GRP1_NM": "남해청", "GRP2_CD": "3020", "GRP2_NM": "창원서", "POL_NM": "신항파출소", "LAT": "35.092223369999999", "LOT": "128.790830800000009"}, "geometry": {"type": "Point", "coordinates": [128.7908308, 35.09222337]}}, {"type": "Feature", "properties": {"GRP1_CD": "30", "GRP1_NM": "남해청", "GRP2_CD": "3020", "GRP2_NM": "창원서", "POL_NM": "진해파출소", "LAT": "35.142750829999997", "LOT": "128.671054400000003"}, "geometry": {"type": "Point", "coordinates": [128.6710544, 35.14275083]}}, {"type": "Feature", "properties": {"GRP1_CD": "30", "GRP1_NM": "남해청", "GRP2_CD": "3020", "GRP2_NM": "창원서", "POL_NM": "마산파출소", "LAT": "35.194734920000002", "LOT": "128.573200600000007"}, "geometry": {"type": "Point", "coordinates": [128.5732006, 35.19473492]}}, {"type": "Feature", "properties": {"GRP1_CD": "30", "GRP1_NM": "남해청", "GRP2_CD": "3020", "GRP2_NM": "창원서", "POL_NM": "광암파출소", "LAT": "35.104385729999997", "LOT": "128.497591699999987"}, "geometry": {"type": "Point", "coordinates": [128.4975917, 35.10438573]}}, {"type": "Feature", "properties": {"GRP1_CD": "30", "GRP1_NM": "남해청", "GRP2_CD": "3010", "GRP2_NM": "통영서", "POL_NM": "고성파출소", "LAT": "34.960208710000003", "LOT": "128.321352399999995"}, "geometry": {"type": "Point", "coordinates": [128.3213524, 34.96020871]}}, {"type": "Feature", "properties": {"GRP1_CD": "30", "GRP1_NM": "남해청", "GRP2_CD": "3010", "GRP2_NM": "통영서", "POL_NM": "통영파출소", "LAT": "34.839979260000000", "LOT": "128.418534300000005"}, "geometry": {"type": "Point", "coordinates": [128.4185343, 34.83997926]}}, {"type": "Feature", "properties": {"GRP1_CD": "30", "GRP1_NM": "남해청", "GRP2_CD": "3010", "GRP2_NM": "통영서", "POL_NM": "고현파출소", "LAT": "34.896956809999999", "LOT": "128.614370600000001"}, "geometry": {"type": "Point", "coordinates": [128.6143706, 34.89695681]}}, {"type": "Feature", "properties": {"GRP1_CD": "30", "GRP1_NM": "남해청", "GRP2_CD": "3010", "GRP2_NM": "통영서", "POL_NM": "장승포파출소", "LAT": "34.867451430000003", "LOT": "128.728469300000000"}, "geometry": {"type": "Point", "coordinates": [128.7284693, 34.86745143]}}, {"type": "Feature", "properties": {"GRP1_CD": "30", "GRP1_NM": "남해청", "GRP2_CD": "3010", "GRP2_NM": "통영서", "POL_NM": "거제남부파출소", "LAT": "34.715727059999999", "LOT": "128.584365600000012"}, "geometry": {"type": "Point", "coordinates": [128.5843656, 34.71572706]}}, {"type": "Feature", "properties": {"GRP1_CD": "30", "GRP1_NM": "남해청", "GRP2_CD": "3050", "GRP2_NM": "사천서", "POL_NM": "사천파출소", "LAT": "34.926683390000001", "LOT": "128.072756400000003"}, "geometry": {"type": "Point", "coordinates": [128.0727564, 34.92668339]}}, {"type": "Feature", "properties": {"GRP1_CD": "30", "GRP1_NM": "남해청", "GRP2_CD": "3050", "GRP2_NM": "사천서", "POL_NM": "남해파출소", "LAT": "34.708174260000000", "LOT": "128.045727300000010"}, "geometry": {"type": "Point", "coordinates": [128.0457273, 34.70817426]}}, {"type": "Feature", "properties": {"GRP1_CD": "30", "GRP1_NM": "남해청", "GRP2_CD": "3050", "GRP2_NM": "사천서", "POL_NM": "하동파출소", "LAT": "34.948843310000001", "LOT": "127.863396300000005"}, "geometry": {"type": "Point", "coordinates": [127.8633963, 34.94884331]}}]}